[{"OBJECT_NAME":"STARLINK-35282","OBJECT_ID":"2025-211G","EPOCH":"2026-03-09T16:56:07.373760","MEAN_MOTION":15.05636331,"ECCENTRICITY":0.00013166,"INCLINATION":97.602,"RA_OF_ASC_NODE":114.0713,"ARG_OF_PERICENTER":98.4023,"MEAN_ANOMALY":261.7353,"EPHEMERIS_TYPE":0,"CLASSIFICATION_TYPE":"U","NORAD_CAT_ID":65658,"ELEMENT_SET_NO":999,"REV_AT_EPOCH":2704,"BSTAR":-0.00024418643,"MEAN_MOTION_DOT":-3.581e-5,"MEAN_MOTION_DDOT":0},{"OBJECT_NAME":"CZ-2C DEB","OBJECT_ID":"2014-059D","EPOCH":"2026-03-09T22:58:58.836288","MEAN_MOTION":14.93158478,"ECCENTRICITY":0.00543695,"INCLINATION":97.8294,"RA_OF_ASC_NODE":330.422,"ARG_OF_PERICENTER":95.2459,"MEAN_ANOMALY":265.4968,"EPHEMERIS_TYPE":0,"CLASSIFICATION_TYPE":"U","NORAD_CAT_ID":40264,"ELEMENT_SET_NO":999,"REV_AT_EPOCH":60833,"BSTAR":0.0017870547,"MEAN_MOTION_DOT":0.00019177,"MEAN_MOTION_DDOT":0}]
